<?xml version="1.0" encoding="UTF-8"?>
<ndm xmlns:xsi="http://www.w3.org/2001/XMLSchema-instance" xsi:noNamespaceSchemaLocation="https://sanaregistry.org/r/ndmxml_unqualified/ndmxml-2.0.0-master-2.0.xsd">
<omm id="CCSDS_OMM_VERS" version="2.0">
<header><CREATION_DATE/><ORIGINATOR/></header><body><segment><metadata><OBJECT_NAME>HULIANWANG DIGUI E</OBJECT_NAME><OBJECT_ID>2025-086E</OBJECT_ID><CENTER_NAME>EARTH</CENTER_NAME><REF_FRAME>TEME</REF_FRAME><TIME_SYSTEM>UTC</TIME_SYSTEM><MEAN_ELEMENT_THEORY>SGP4</MEAN_ELEMENT_THEORY></metadata><data><meanElements><EPOCH>2025-05-07T21:49:57.622944</EPOCH><MEAN_MOTION>13.41119746</MEAN_MOTION><ECCENTRICITY>.0010175</ECCENTRICITY><INCLINATION>86.5052</INCLINATION><RA_OF_ASC_NODE>89.7358</RA_OF_ASC_NODE><ARG_OF_PERICENTER>270.3099</ARG_OF_PERICENTER><MEAN_ANOMALY>89.6879</MEAN_ANOMALY></meanElements><tleParameters><EPHEMERIS_TYPE>0</EPHEMERIS_TYPE><CLASSIFICATION_TYPE>U</CLASSIFICATION_TYPE><NORAD_CAT_ID>63691</NORAD_CAT_ID><ELEMENT_SET_NO>999</ELEMENT_SET_NO><REV_AT_EPOCH>119</REV_AT_EPOCH><BSTAR>.18365E-3</BSTAR><MEAN_MOTION_DOT>.117E-5</MEAN_MOTION_DOT><MEAN_MOTION_DDOT>0</MEAN_MOTION_DDOT></tleParameters></data></segment></body></omm>
<omm id="CCSDS_OMM_VERS" version="2.0">
<header><CREATION_DATE/><ORIGINATOR/></header><body><segment><metadata><OBJECT_NAME>HULIANWANG DIGUI F</OBJECT_NAME><OBJECT_ID>2025-086F</OBJECT_ID><CENTER_NAME>EARTH</CENTER_NAME><REF_FRAME>TEME</REF_FRAME><TIME_SYSTEM>UTC</TIME_SYSTEM><MEAN_ELEMENT_THEORY>SGP4</MEAN_ELEMENT_THEORY></metadata><data><meanElements><EPOCH>2025-05-07T21:51:18.245376</EPOCH><MEAN_MOTION>13.40980405</MEAN_MOTION><ECCENTRICITY>.0008931</ECCENTRICITY><INCLINATION>86.4990</INCLINATION><RA_OF_ASC_NODE>89.7297</RA_OF_ASC_NODE><ARG_OF_PERICENTER>276.3079</ARG_OF_PERICENTER><MEAN_ANOMALY>83.7047</MEAN_ANOMALY></meanElements><tleParameters><EPHEMERIS_TYPE>0</EPHEMERIS_TYPE><CLASSIFICATION_TYPE>U</CLASSIFICATION_TYPE><NORAD_CAT_ID>63692</NORAD_CAT_ID><ELEMENT_SET_NO>999</ELEMENT_SET_NO><REV_AT_EPOCH>119</REV_AT_EPOCH><BSTAR>.18766E-3</BSTAR><MEAN_MOTION_DOT>.119E-5</MEAN_MOTION_DOT><MEAN_MOTION_DDOT>0</MEAN_MOTION_DDOT></tleParameters></data></segment></body></omm>
<omm id="CCSDS_OMM_VERS" version="2.0">
<header><CREATION_DATE/><ORIGINATOR/></header><body><segment><metadata><OBJECT_NAME>HULIANWANG DIGUI G</OBJECT_NAME><OBJECT_ID>2025-086G</OBJECT_ID><CENTER_NAME>EARTH</CENTER_NAME><REF_FRAME>TEME</REF_FRAME><TIME_SYSTEM>UTC</TIME_SYSTEM><MEAN_ELEMENT_THEORY>SGP4</MEAN_ELEMENT_THEORY></metadata><data><meanElements><EPOCH>2025-05-07T21:51:41.179392</EPOCH><MEAN_MOTION>13.40941634</MEAN_MOTION><ECCENTRICITY>.0009799</ECCENTRICITY><INCLINATION>86.5039</INCLINATION><RA_OF_ASC_NODE>89.7335</RA_OF_ASC_NODE><ARG_OF_PERICENTER>279.4658</ARG_OF_PERICENTER><MEAN_ANOMALY>80.5378</MEAN_ANOMALY></meanElements><tleParameters><EPHEMERIS_TYPE>0</EPHEMERIS_TYPE><CLASSIFICATION_TYPE>U</CLASSIFICATION_TYPE><NORAD_CAT_ID>63693</NORAD_CAT_ID><ELEMENT_SET_NO>999</ELEMENT_SET_NO><REV_AT_EPOCH>119</REV_AT_EPOCH><BSTAR>.20768E-3</BSTAR><MEAN_MOTION_DOT>.13E-5</MEAN_MOTION_DOT><MEAN_MOTION_DDOT>0</MEAN_MOTION_DDOT></tleParameters></data></segment></body></omm>
<omm id="CCSDS_OMM_VERS" version="2.0">
<header><CREATION_DATE/><ORIGINATOR/></header><body><segment><metadata><OBJECT_NAME>HULIANWANG DIGUI H</OBJECT_NAME><OBJECT_ID>2025-086H</OBJECT_ID><CENTER_NAME>EARTH</CENTER_NAME><REF_FRAME>TEME</REF_FRAME><TIME_SYSTEM>UTC</TIME_SYSTEM><MEAN_ELEMENT_THEORY>SGP4</MEAN_ELEMENT_THEORY></metadata><data><meanElements><EPOCH>2025-05-07T21:52:20.377344</EPOCH><MEAN_MOTION>13.40876033</MEAN_MOTION><ECCENTRICITY>.0010889</ECCENTRICITY><INCLINATION>86.5000</INCLINATION><RA_OF_ASC_NODE>89.7311</RA_OF_ASC_NODE><ARG_OF_PERICENTER>275.1014</ARG_OF_PERICENTER><MEAN_ANOMALY>84.8886</MEAN_ANOMALY></meanElements><tleParameters><EPHEMERIS_TYPE>0</EPHEMERIS_TYPE><CLASSIFICATION_TYPE>U</CLASSIFICATION_TYPE><NORAD_CAT_ID>63694</NORAD_CAT_ID><ELEMENT_SET_NO>999</ELEMENT_SET_NO><REV_AT_EPOCH>119</REV_AT_EPOCH><BSTAR>.2113E-3</BSTAR><MEAN_MOTION_DOT>.132E-5</MEAN_MOTION_DOT><MEAN_MOTION_DDOT>0</MEAN_MOTION_DDOT></tleParameters></data></segment></body></omm>
<omm id="CCSDS_OMM_VERS" version="2.0">
<header><CREATION_DATE/><ORIGINATOR/></header><body><segment><metadata><OBJECT_NAME>HULIANWANG DIGUI J</OBJECT_NAME><OBJECT_ID>2025-086J</OBJECT_ID><CENTER_NAME>EARTH</CENTER_NAME><REF_FRAME>TEME</REF_FRAME><TIME_SYSTEM>UTC</TIME_SYSTEM><MEAN_ELEMENT_THEORY>SGP4</MEAN_ELEMENT_THEORY></metadata><data><meanElements><EPOCH>2025-05-07T21:53:08.201472</EPOCH><MEAN_MOTION>13.40791249</MEAN_MOTION><ECCENTRICITY>.0010037</ECCENTRICITY><INCLINATION>86.4963</INCLINATION><RA_OF_ASC_NODE>89.7273</RA_OF_ASC_NODE><ARG_OF_PERICENTER>277.3794</ARG_OF_PERICENTER><MEAN_ANOMALY>82.6208</MEAN_ANOMALY></meanElements><tleParameters><EPHEMERIS_TYPE>0</EPHEMERIS_TYPE><CLASSIFICATION_TYPE>U</CLASSIFICATION_TYPE><NORAD_CAT_ID>63695</NORAD_CAT_ID><ELEMENT_SET_NO>999</ELEMENT_SET_NO><REV_AT_EPOCH>119</REV_AT_EPOCH><BSTAR>.20724E-3</BSTAR><MEAN_MOTION_DOT>.129E-5</MEAN_MOTION_DOT><MEAN_MOTION_DDOT>0</MEAN_MOTION_DDOT></tleParameters></data></segment></body></omm>
<omm id="CCSDS_OMM_VERS" version="2.0">
<header><CREATION_DATE/><ORIGINATOR/></header><body><segment><metadata><OBJECT_NAME>HULIANWANG DIGUI K</OBJECT_NAME><OBJECT_ID>2025-086K</OBJECT_ID><CENTER_NAME>EARTH</CENTER_NAME><REF_FRAME>TEME</REF_FRAME><TIME_SYSTEM>UTC</TIME_SYSTEM><MEAN_ELEMENT_THEORY>SGP4</MEAN_ELEMENT_THEORY></metadata><data><meanElements><EPOCH>2025-05-07T21:53:45.533184</EPOCH><MEAN_MOTION>13.40710259</MEAN_MOTION><ECCENTRICITY>.0011153</ECCENTRICITY><INCLINATION>86.4992</INCLINATION><RA_OF_ASC_NODE>89.7323</RA_OF_ASC_NODE><ARG_OF_PERICENTER>273.8356</ARG_OF_PERICENTER><MEAN_ANOMALY>86.1512</MEAN_ANOMALY></meanElements><tleParameters><EPHEMERIS_TYPE>0</EPHEMERIS_TYPE><CLASSIFICATION_TYPE>U</CLASSIFICATION_TYPE><NORAD_CAT_ID>63696</NORAD_CAT_ID><ELEMENT_SET_NO>999</ELEMENT_SET_NO><REV_AT_EPOCH>119</REV_AT_EPOCH><BSTAR>.20175E-3</BSTAR><MEAN_MOTION_DOT>.126E-5</MEAN_MOTION_DOT><MEAN_MOTION_DDOT>0</MEAN_MOTION_DDOT></tleParameters></data></segment></body></omm>
<omm id="CCSDS_OMM_VERS" version="2.0">
<header><CREATION_DATE/><ORIGINATOR/></header><body><segment><metadata><OBJECT_NAME>STARLINK-33894</OBJECT_NAME><OBJECT_ID>2025-087A</OBJECT_ID><CENTER_NAME>EARTH</CENTER_NAME><REF_FRAME>TEME</REF_FRAME><TIME_SYSTEM>UTC</TIME_SYSTEM><MEAN_ELEMENT_THEORY>SGP4</MEAN_ELEMENT_THEORY></metadata><data><meanElements><EPOCH>2025-05-07T22:00:01.999584</EPOCH><MEAN_MOTION>15.91557816</MEAN_MOTION><ECCENTRICITY>.0000759</ECCENTRICITY><INCLINATION>53.1559</INCLINATION><RA_OF_ASC_NODE>211.2635</RA_OF_ASC_NODE><ARG_OF_PERICENTER>56.0495</ARG_OF_PERICENTER><MEAN_ANOMALY>344.1138</MEAN_ANOMALY></meanElements><tleParameters><EPHEMERIS_TYPE>0</EPHEMERIS_TYPE><CLASSIFICATION_TYPE>U</CLASSIFICATION_TYPE><NORAD_CAT_ID>63697</NORAD_CAT_ID><ELEMENT_SET_NO>999</ELEMENT_SET_NO><REV_AT_EPOCH>144</REV_AT_EPOCH><BSTAR>-.31458E-2</BSTAR><MEAN_MOTION_DOT>-.1045187E-1</MEAN_MOTION_DOT><MEAN_MOTION_DDOT>.33011E-3</MEAN_MOTION_DDOT></tleParameters></data></segment></body></omm>
<omm id="CCSDS_OMM_VERS" version="2.0">
<header><CREATION_DATE/><ORIGINATOR/></header><body><segment><metadata><OBJECT_NAME>STARLINK-33922</OBJECT_NAME><OBJECT_ID>2025-087B</OBJECT_ID><CENTER_NAME>EARTH</CENTER_NAME><REF_FRAME>TEME</REF_FRAME><TIME_SYSTEM>UTC</TIME_SYSTEM><MEAN_ELEMENT_THEORY>SGP4</MEAN_ELEMENT_THEORY></metadata><data><meanElements><EPOCH>2025-05-07T22:00:01.999584</EPOCH><MEAN_MOTION>15.91598057</MEAN_MOTION><ECCENTRICITY>.0000891</ECCENTRICITY><INCLINATION>53.1557</INCLINATION><RA_OF_ASC_NODE>211.2596</RA_OF_ASC_NODE><ARG_OF_PERICENTER>54.4884</ARG_OF_PERICENTER><MEAN_ANOMALY>347.4362</MEAN_ANOMALY></meanElements><tleParameters><EPHEMERIS_TYPE>0</EPHEMERIS_TYPE><CLASSIFICATION_TYPE>U</CLASSIFICATION_TYPE><NORAD_CAT_ID>63698</NORAD_CAT_ID><ELEMENT_SET_NO>999</ELEMENT_SET_NO><REV_AT_EPOCH>130</REV_AT_EPOCH><BSTAR>-.31435E-2</BSTAR><MEAN_MOTION_DOT>-.1046594E-1</MEAN_MOTION_DOT><MEAN_MOTION_DDOT>.33105E-3</MEAN_MOTION_DDOT></tleParameters></data></segment></body></omm>

</ndm>